{"fetched_at":"2026-03-29T16:36:15Z","count":15609,"tles":[{"name":"STARLINK-31564","line1":"1 59526U 24073R   26087.81274635  .00008017  00000+0  30040-3 0  9997","line2":"2 59526  42.9985 209.7284 0001414 271.2602  88.8088 15.27593159109106","category":"Starlink"}]}