{
  "norad_id": 59526,
  "name": "STARLINK-31564",
  "history": [
    {
      "epoch": "2026-03-28T19:30:21.284640Z",
      "apogee_km": 483.98047718825,
      "perigee_km": 482.0389098969108,
      "latitude_deg": 3.5971153500648985e-05,
      "longitude_deg": 90.9119371138386,
      "height_km": 482.76488792594046,
      "semi_major_axis_km": 6861.14669354258,
      "eccentricity": 0.00014149,
      "inclination_deg": 42.9985,
      "raan_deg": 209.7284,
      "arg_perigee_deg": 271.2602,
      "mean_anomaly_deg": 88.8088,
      "mean_motion_rev_day": 15.27593159
    }
  ]
}